[{"OBJECT_NAME":"STARLINK-5974","OBJECT_ID":"2023-058AD","EPOCH":"2026-03-09T21:50:56.837184","MEAN_MOTION":15.05653959,"ECCENTRICITY":0.00017848,"INCLINATION":97.6046,"RA_OF_ASC_NODE":71.4943,"ARG_OF_PERICENTER":84.256,"MEAN_ANOMALY":275.887,"EPHEMERIS_TYPE":0,"CLASSIFICATION_TYPE":"U","NORAD_CAT_ID":56344,"ELEMENT_SET_NO":999,"REV_AT_EPOCH":15823,"BSTAR":7.5029831e-5,"MEAN_MOTION_DOT":1.022e-5,"MEAN_MOTION_DDOT":0},{"OBJECT_NAME":"CZ-4B DEB","OBJECT_ID":"1999-057Q","EPOCH":"2026-03-09T11:26:54.640320","MEAN_MOTION":15.06874272,"ECCENTRICITY":0.0020008,"INCLINATION":98.6841,"RA_OF_ASC_NODE":262.2845,"ARG_OF_PERICENTER":336.9186,"MEAN_ANOMALY":80.9466,"EPHEMERIS_TYPE":0,"CLASSIFICATION_TYPE":"U","NORAD_CAT_ID":26128,"ELEMENT_SET_NO":999,"REV_AT_EPOCH":40054,"BSTAR":0.00062227426,"MEAN_MOTION_DOT":9.256e-5,"MEAN_MOTION_DDOT":0}]
